NORAD_CAT_ID,OBJECT_NAME,OBJECT_TYPE,EPOCH,MEAN_MOTION,ECCENTRICITY,INCLINATION,RA_OF_ASC_NODE,ARG_OF_PERICENTER,MEAN_ANOMALY,BSTAR,MEAN_MOTION_DOT,MEAN_MOTION_DDOT,TLE_LINE0,TLE_LINE1,TLE_LINE2,SEMIMAJOR_AXIS,PERIOD,APOGEE,PERIGEE,DECAYED
52360.0,STARLINK-3824,PAYLOAD,2024-04-03 07:58:43,15.08837502,0.000161,53.2156,115.5894,90.2403,269.8774,1.6108e-05,-3.2e-07,0.0,0 STARLINK-3824,1 52360U 22045AF  24094.33244607 -.00000032  00000-0  16108-4 0  9993,2 52360  53.2156 115.5894 0001610  90.2403 269.8774 15.08837502109427,6917.888,95.438,540.867,538.639,0.0
52360.0,STARLINK-3824,PAYLOAD,2024-04-04 04:38:43,15.08840613,0.0001589,53.2161,111.723,93.6813,266.4361,4.3047e-05,3.97e-06,0.0,0 STARLINK-3824,1 52360U 22045AF  24095.19356278  .00000397  00000-0  43047-4 0  9991,2 52360  53.2161 111.7230 0001589  93.6813 266.4361 15.08840613109558,6917.879,95.438,540.843,538.644,0.0
52360.0,STARLINK-3824,PAYLOAD,2024-04-04 07:49:29,15.08842119,0.0001571,53.2164,111.1285,92.8853,267.2319,5.5507e-05,5.96e-06,0.0,0 STARLINK-3824,1 52360U 22045AF  24095.32604138  .00000596  00000-0  55507-4 0  9992,2 52360  53.2164 111.1285 0001571  92.8853 267.2319 15.08842119109578,6917.874,95.437,540.826,538.652,0.0
52360.0,STARLINK-3824,PAYLOAD,2024-04-05 10:51:03,15.08840377,0.0001469,53.2163,106.0731,91.0267,269.0894,6.7256e-05,7.83e-06,0.0,0 STARLINK-3824,1 52360U 22045AF  24096.45212323  .00000783  00000-0  67256-4 0  9990,2 52360  53.2163 106.0731 0001469  91.0267 269.0894 15.08840377109743,6917.879,95.438,540.76,538.728,0.0
52360.0,STARLINK-3824,PAYLOAD,2024-04-05 17:12:36,15.0883679,0.0001447,53.2161,104.8836,90.6168,269.499,2.5752e-05,1.22e-06,0.0,0 STARLINK-3824,1 52360U 22045AF  24096.71708678  .00000122  00000-0  25752-4 0  9994,2 52360  53.2161 104.8836 0001447  90.6168 269.4990 15.08836790109783,6917.89,95.438,540.756,538.754,0.0
52360.0,STARLINK-3824,PAYLOAD,2024-04-06 04:20:18,15.08833328,0.0001502,53.2165,102.8026,92.701,267.4154,-2.7529e-05,-7.26e-06,0.0,0 STARLINK-3824,1 52360U 22045AF  24097.18077201 -.00000726  00000-0 -27529-4 0  9993,2 52360  53.2165 102.8026 0001502  92.7010 267.4154 15.08833328109859,6917.901,95.438,540.805,538.727,0.0
52360.0,STARLINK-3824,PAYLOAD,2024-04-06 07:31:04,15.08834996,0.0001508,53.2166,102.2082,93.0695,267.047,-1.3396e-05,-5.01e-06,0.0,0 STARLINK-3824,1 52360U 22045AF  24097.31325085 -.00000501  00000-0 -13396-4 0  9992,2 52360  53.2166 102.2082 0001508  93.0695 267.0470 15.08834996109876,6917.896,95.438,540.804,538.717,0.0
52360.0,STARLINK-3824,PAYLOAD,2024-04-06 23:24:56,15.08835959,0.0001494,53.2166,99.2344,94.9968,265.1195,2.3939e-06,-2.5e-06,0.0,0 STARLINK-3824,1 52360U 22045AF  24097.97565180 -.00000250  00000-0  23939-5 0  9991,2 52360  53.2166  99.2344 0001494  94.9968 265.1195 15.08835959109973,6917.893,95.438,540.791,538.724,0.0
52360.0,STARLINK-3824,PAYLOAD,2024-04-07 08:57:15,15.088365,0.0001503,53.2168,97.4502,94.0308,266.0856,7.0318e-06,-1.76e-06,0.0,0 STARLINK-3824,1 52360U 22045AF  24098.37309280 -.00000176  00000-0  70318-5 0  9993,2 52360  53.2168  97.4502 0001503  94.0308 266.0856 15.08836500110037,6917.891,95.438,540.796,538.716,0.0
52360.0,STARLINK-3824,PAYLOAD,2024-04-07 16:54:10,15.08838972,0.0001516,53.2172,95.963,89.109,271.0076,3.3396e-05,2.44e-06,0.0,0 STARLINK-3824,1 52360U 22045AF  24098.70429126  .00000244  00000-0  33396-4 0  9991,2 52360  53.2172  95.9630 0001516  89.1090 271.0076 15.08838972110084,6917.884,95.438,540.797,538.7,0.0
52360.0,STARLINK-3824,PAYLOAD,2024-04-08 08:48:01,15.08841534,0.0001499,53.2174,92.9894,87.3408,272.7755,0.00010248,1.343e-05,0.0,0 STARLINK-3824,1 52360U 22045AF  24099.36668894  .00001343  00000-0  10248-3 0  9992,2 52360  53.2174  92.9894 0001499  87.3408 272.7755 15.08841534110189,6917.876,95.437,540.778,538.704,0.0
52360.0,STARLINK-3824,PAYLOAD,2024-04-08 16:44:57,15.08839924,0.0001528,53.2176,91.5029,87.9999,272.1168,8.0294e-05,9.9e-06,0.0,0 STARLINK-3824,1 52360U 22045AF  24099.69789094  .00000990  00000-0  80294-4 0  9990,2 52360  53.2176  91.5029 0001528  87.9999 272.1168 15.08839924110238,6917.881,95.438,540.803,538.689,0.0
52360.0,STARLINK-3824,PAYLOAD,2024-04-08 23:06:30,15.08840122,0.0001565,53.2179,90.3134,87.992,272.1251,8.0384e-05,9.92e-06,0.0,0 STARLINK-3824,1 52360U 22045AF  24099.96285098  .00000992  00000-0  80384-4 0  9997,2 52360  53.2179  90.3134 0001565  87.9920 272.1251 15.08840122110279,6917.88,95.438,540.828,538.662,0.0
52360.0,STARLINK-3824,PAYLOAD,2024-04-09 08:38:48,15.08842783,0.000141,53.2168,88.5295,86.7243,273.3911,8.3223e-05,1.037e-05,0.0,0 STARLINK-3824,1 52360U 22045AF  24100.36028856  .00001037  00000-0  83223-4 0  9997,2 52360  53.2168  88.5295 0001410  86.7243 273.3911 15.08842783110336,6917.872,95.437,540.712,538.761,0.0
52360.0,STARLINK-3824,PAYLOAD,2024-04-09 16:35:47,15.0880844,0.0001521,53.2176,87.043,89.4787,270.638,-0.00021762,-3.747e-05,0.0,0 STARLINK-3824,1 52360U 22045AF  24100.69152350 -.00003747  00000-0 -21762-3 0  9991,2 52360  53.2176  87.0430 0001521  89.4787 270.6380 15.08808440110383,6917.977,95.44,540.894,538.79,0.0
52360.0,STARLINK-3824,PAYLOAD,2024-04-09 22:57:20,15.08806611,0.0001656,53.2167,85.8536,90.0298,270.0884,-0.00022226,-3.82e-05,0.0,0 STARLINK-3824,1 52360U 22045AF  24100.95648983 -.00003820  00000-0 -22226-3 0  9990,2 52360  53.2167  85.8536 0001656  90.0298 270.0884 15.08806611110426,6917.982,95.44,540.993,538.702,0.0
52360.0,STARLINK-3824,PAYLOAD,2024-04-10 05:18:51,15.08835465,0.0001285,53.2181,84.6629,92.4284,267.6856,3.4371e-05,2.59e-06,0.0,0 STARLINK-3824,1 52360U 22045AF  24101.22142575  .00000259  00000-0  34371-4 0  9993,2 52360  53.2181  84.6629 0001285  92.4284 267.6856 15.08835465110465,6917.894,95.438,540.648,538.87,0.0
52360.0,STARLINK-3824,PAYLOAD,2024-04-10 16:26:32,15.08845827,0.0001379,53.2181,82.5819,87.2959,272.8191,9.4813e-05,1.222e-05,0.0,0 STARLINK-3824,1 52360U 22045AF  24101.68509725  .00001222  00000-0  94813-4 0  9995,2 52360  53.2181  82.5819 0001379  87.2959 272.8191 15.08845827110539,6917.863,95.437,540.682,538.774,0.0
52360.0,STARLINK-3824,PAYLOAD,2024-04-10 22:48:04,15.08847044,0.0001161,53.2173,81.3925,82.6529,277.4595,0.00013511,1.863e-05,0.0,0 STARLINK-3824,1 52360U 22045AF  24101.95005389  .00001863  00000-0  13511-3 0  9998,2 52360  53.2173  81.3925 0001161  82.6529 277.4595 15.08847044110572,6917.859,95.437,540.527,538.921,0.0
52360.0,STARLINK-3824,PAYLOAD,2024-04-11 05:09:36,15.08856484,0.0001236,53.2177,80.2018,91.3118,268.8016,0.00020537,2.984e-05,0.0,0 STARLINK-3824,1 52360U 22045AF  24102.21500444  .00002984  00000-0  20537-3 0  9991,2 52360  53.2177  80.2018 0001236  91.3118 268.8016 15.08856484110616,6917.83,95.437,540.55,538.84,0.0
52360.0,STARLINK-3824,PAYLOAD,2024-04-12 03:25:01,15.08830236,0.0001289,53.2181,76.0402,102.4053,257.7084,0.00032142,4.83e-05,0.0,0 STARLINK-3824,1 52360U 22045AF  24103.14237889  .00004830  00000-0  32142-3 0  9991,2 52360  53.2181  76.0402 0001289 102.4053 257.7084 15.08830236110755,6917.91,95.438,540.667,538.884,0.0
52360.0,STARLINK-3824,PAYLOAD,2024-04-12 08:11:10,15.08848504,0.0001498,53.2179,75.147,89.0564,271.0599,9.2666e-05,1.187e-05,0.0,0 STARLINK-3824,1 52360U 22045AF  24103.34109485  .00001187  00000-0  92666-4 0  9993,2 52360  53.2179  75.1470 0001498  89.0564 271.0599 15.08848504110786,6917.854,95.437,540.756,538.683,0.0
52360.0,STARLINK-3824,PAYLOAD,2024-04-13 03:15:48,15.08847285,0.0001561,53.2181,71.576,107.4814,252.6348,-0.00013005,-2.358e-05,0.0,0 STARLINK-3824,1 52360U 22045AF  24104.13597743 -.00002358  00000-0 -13005-3 0  9991,2 52360  53.2181  71.5760 0001561 107.4814 252.6348 15.08847285110901,6917.858,95.437,540.803,538.643,0.0
52360.0,STARLINK-3824,PAYLOAD,2024-04-13 08:01:57,15.08847135,0.0001454,53.2182,70.6841,102.4336,257.6819,-0.0001345,-2.428e-05,0.0,0 STARLINK-3824,1 52360U 22045AF  24104.33469707 -.00002428  00000-0 -13450-3 0  9993,2 52360  53.2182  70.6841 0001454 102.4336 257.6819 15.08847135110932,6917.859,95.437,540.729,538.718,0.0
52360.0,STARLINK-3824,PAYLOAD,2024-04-14 07:52:44,15.0884033,0.0001865,53.2199,66.2233,125.5666,234.55,4.4641e-05,4.22e-06,0.0,0 STARLINK-3824,1 52360U 22045AF  24105.32829396  .00000422  00000-0  44641-4 0  9994,2 52360  53.2199  66.2233 0001865 125.5666 234.5500 15.08840330111082,6917.879,95.438,541.035,538.454,0.0
52360.0,STARLINK-3824,PAYLOAD,2024-04-15 06:08:08,15.08843082,0.0001396,53.2192,62.0589,102.5127,257.6022,0.00011044,1.47e-05,0.0,0 STARLINK-3824,1 52360U 22045AF  24106.25565345  .00001470  00000-0  11044-3 0  9992,2 52360  53.2192  62.0589 0001396 102.5127 257.6022 15.08843082111227,6917.871,95.437,540.702,538.77,0.0
52360.0,STARLINK-3824,PAYLOAD,2024-04-16 04:23:32,15.08850933,0.0001419,53.2196,57.8954,88.8022,271.3133,0.00015522,2.184e-05,0.0,0 STARLINK-3824,1 52360U 22045AF  24107.18300939  .00002184  00000-0  15522-3 0  9999,2 52360  53.2196  57.8954 0001419  88.8022 271.3133 15.08850933111369,6917.847,95.437,540.694,538.73,0.0
52360.0,STARLINK-3824,PAYLOAD,2024-04-16 13:55:51,15.08844388,0.0001473,53.22,56.114,109.9307,250.1844,9.2439e-05,1.184e-05,0.0,0 STARLINK-3824,1 52360U 22045AF  24107.58045364  .00001184  00000-0  92439-4 0  9993,2 52360  53.2200  56.1140 0001473 109.9307 250.1844 15.08844388111423,6917.867,95.437,540.751,538.713,0.0
52360.0,STARLINK-3824,PAYLOAD,2024-04-17 02:38:55,15.08859295,0.0001452,53.218,53.7385,82.8454,277.2703,0.0001324,1.821e-05,0.0,0 STARLINK-3824,1 52360U 22045AF  24108.11036303  .00001821  00000-0  13240-3 0  9996,2 52360  53.2180  53.7385 0001452  82.8454 277.2703 15.08859295111509,6917.821,95.436,540.691,538.682,0.0
52360.0,STARLINK-3824,PAYLOAD,2024-04-17 05:49:40,15.08874541,0.0001445,53.2196,53.1422,81.3113,278.8043,0.0002913,4.355e-05,0.0,0 STARLINK-3824,1 52360U 22045AF  24108.24282754  .00004355  00000-0  29130-3 0  9993,2 52360  53.2196  53.1422 0001445  81.3113 278.8043 15.08874541111527,6917.775,95.435,540.639,538.64,0.0
